{"type": "FeatureCollection", "features": [ {"type": "Feature", "properties": {"norad_id": 31169, "name": "FENGYUN 1C DEB", "group": "fengyun-1c-debris", "lat": -13.122046692061307, "lon": 12.96519744601376, "alt_km": 775.1352546722319, "timestamp": "2025-12-10T11:33:53.665949+00:00", "meta": {"OBJECT_NAME": "FENGYUN 1C DEB", "OBJECT_ID": "1999-025BHX", "EPOCH": "2025-12-07T14:36:12.590784", "MEAN_MOTION": 14.26378053, "ECCENTRICITY": 0.00576294, "INCLINATION": 99.1571, "RA_OF_ASC_NODE": 7.8072, "ARG_OF_PERICENTER": 32.3449, "MEAN_ANOMALY": 328.1242, "EPHEMERIS_TYPE": 0, "CLASSIFICATION_TYPE": "U", "NORAD_CAT_ID": 31169, "ELEMENT_SET_NO": 999, "REV_AT_EPOCH": 57031, "BSTAR": 0.0034039126, "MEAN_MOTION_DOT": 8.288e-05, "MEAN_MOTION_DDOT": 0}, "tle": {"line1": "1 31169U 99025BHX 25341.60847906  .00008288  00000+0  34039-2 0  9996", "line2": "2 31169  99.1571   7.8072 0057629  32.3449 328.1242 14.26378053570319"}}, "geometry": {"type": "Point", "coordinates": [12.96519744601376, -13.122046692061307]}}, {"type": "Feature", "properties": {"norad_id": 31171, "name": "FENGYUN 1C DEB", "group": "fengyun-1c-debris", "lat": 14.630452345306457, "lon": -27.794830226822377, "alt_km": 706.890880769779, "timestamp": "2025-12-10T11:33:53.665959+00:00", "meta": {"OBJECT_NAME": "FENGYUN 1C DEB", "OBJECT_ID": "1999-025BHZ", "EPOCH": "2025-12-09T11:07:44.503392", "MEAN_MOTION": 14.34659859, "ECCENTRICITY": 0.01547818, "INCLINATION": 98.0157, "RA_OF_ASC_NODE": 333.3678, "ARG_OF_PERICENTER": 326.4918, "MEAN_ANOMALY": 191.4185, "EPHEMERIS_TYPE": 0, "CLASSIFICATION_TYPE": "U", "NORAD_CAT_ID": 31171, "ELEMENT_SET_NO": 999, "REV_AT_EPOCH": 95783, "BSTAR": 0.0076074575, "MEAN_MOTION_DOT": 0.00024668, "MEAN_MOTION_DDOT": 0}, "tle": {"line1": "1 31171U 99025BHZ 25343.46370953  .00024668  00000+0  76075-2 0  9994", "line2": "2 31171  98.0157 333.3678 0154781 326.4918 191.4185 14.34659859957832"}}, "geometry": {"type": "Point", "coordinates": [-27.794830226822377, 14.630452345306457]}}, {"type": "Feature", "properties": {"norad_id": 31172, "name": "FENGYUN 1C DEB", "group": "fengyun-1c-debris", "lat": -60.418112805501224, "lon": 4.1566505215828835, "alt_km": 696.0308657249689, "timestamp": "2025-12-10T11:33:53.665968+00:00", "meta": {"OBJECT_NAME": "FENGYUN 1C DEB", "OBJECT_ID": "1999-025BJA", "EPOCH": "2025-12-08T17:54:33.693984", "MEAN_MOTION": 14.31507738, "ECCENTRICITY": 0.01481093, "INCLINATION": 98.4249, "RA_OF_ASC_NODE": 347.3377, "ARG_OF_PERICENTER": 280.4418, "MEAN_ANOMALY": 78.0104, "EPHEMERIS_TYPE": 0, "CLASSIFICATION_TYPE": "U", "NORAD_CAT_ID": 31172, "ELEMENT_SET_NO": 999, "REV_AT_EPOCH": 97569, "BSTAR": 0.00031828314, "MEAN_MOTION_DOT": 9.07e-06, "MEAN_MOTION_DDOT": 0}, "tle": {"line1": "1 31172U 99025BJA 25342.74622331  .00000907  00000+0  31828-3 0  9993", "line2": "2 31172  98.4249 347.3377 0148109 280.4418  78.0104 14.31507738975691"}}, "geometry": {"type": "Point", "coordinates": [4.1566505215828835, -60.418112805501224]}}, {"type": "Feature", "properties": {"norad_id": 31175, "name": "FENGYUN 1C DEB", "group": "fengyun-1c-debris", "lat": -30.747973615848554, "lon": -10.312271506946495, "alt_km": 747.3034484155287, "timestamp": "2025-12-10T11:33:53.665978+00:00", "meta": {"OBJECT_NAME": "FENGYUN 1C DEB", "OBJECT_ID": "1999-025BJD", "EPOCH": "2025-12-09T04:27:17.098848", "MEAN_MOTION": 14.59831692, "ECCENTRICITY": 0.0074003, "INCLINATION": 98.406, "RA_OF_ASC_NODE": 343.3274, "ARG_OF_PERICENTER": 176.774, "MEAN_ANOMALY": 183.3952, "EPHEMERIS_TYPE": 0, "CLASSIFICATION_TYPE": "U", "NORAD_CAT_ID": 31175, "ELEMENT_SET_NO": 999, "REV_AT_EPOCH": 65587, "BSTAR": 0.0051551625, "MEAN_MOTION_DOT": 0.00025647, "MEAN_MOTION_DDOT": 0}, "tle": {"line1": "1 31175U 99025BJD 25343.18561457  .00025647  00000+0  51552-2 0  9999", "line2": "2 31175  98.4060 343.3274 0074003 176.7740 183.3952 14.59831692655878"}}, "geometry": {"type": "Point", "coordinates": [-10.312271506946495, -30.747973615848554]}}, {"type": "Feature", "properties": {"norad_id": 31177, "name": "FENGYUN 1C DEB", "group": "fengyun-1c-debris", "lat": 29.150586371622957, "lon": -106.78581654314023, "alt_km": 940.6937075843498, "timestamp": "2025-12-10T11:33:53.665988+00:00", "meta": {"OBJECT_NAME": "FENGYUN 1C DEB", "OBJECT_ID": "1999-025BJF", "EPOCH": "2025-12-08T17:24:07.966080", "MEAN_MOTION": 13.622528, "ECCENTRICITY": 0.0310599, "INCLINATION": 98.7576, "RA_OF_ASC_NODE": 256.5653, "ARG_OF_PERICENTER": 324.298, "MEAN_ANOMALY": 91.0785, "EPHEMERIS_TYPE": 0, "CLASSIFICATION_TYPE": "U", "NORAD_CAT_ID": 31177, "ELEMENT_SET_NO": 999, "REV_AT_EPOCH": 66157, "BSTAR": 0.0076571, "MEAN_MOTION_DOT": 8.152e-05, "MEAN_MOTION_DDOT": 0}, "tle": {"line1": "1 31177U 99025BJF 25342.72509220  .00008152  00000+0  76571-2 0  9990", "line2": "2 31177  98.7576 256.5653 0310599 324.2980  91.0785 13.62252800661574"}}, "geometry": {"type": "Point", "coordinates": [-106.78581654314023, 29.150586371622957]}}, {"type": "Feature", "properties": {"norad_id": 31178, "name": "FENGYUN 1C DEB", "group": "fengyun-1c-debris", "lat": -25.023561586405602, "lon": -8.96987665278102, "alt_km": 734.894729942418, "timestamp": "2025-12-10T11:33:53.665998+00:00", "meta": {"OBJECT_NAME": "FENGYUN 1C DEB", "OBJECT_ID": "1999-025BJG", "EPOCH": "2025-12-09T05:17:19.270752", "MEAN_MOTION": 14.22151884, "ECCENTRICITY": 0.0126197, "INCLINATION": 99.5137, "RA_OF_ASC_NODE": 345.1801, "ARG_OF_PERICENTER": 325.5264, "MEAN_ANOMALY": 33.7773, "EPHEMERIS_TYPE": 0, "CLASSIFICATION_TYPE": "U", "NORAD_CAT_ID": 31178, "ELEMENT_SET_NO": 999, "REV_AT_EPOCH": 95765, "BSTAR": 0.003208, "MEAN_MOTION_DOT": 7.667e-05, "MEAN_MOTION_DDOT": 0}, "tle": {"line1": "1 31178U 99025BJG 25343.22036193  .00007667  00000+0  32080-2 0  9998", "line2": "2 31178  99.5137 345.1801 0126197 325.5264  33.7773 14.22151884957659"}}, "geometry": {"type": "Point", "coordinates": [-8.96987665278102, -25.023561586405602]}}, {"type": "Feature", "properties": {"norad_id": 31179, "name": "FENGYUN 1C DEB", "group": "fengyun-1c-debris", "lat": 70.07661229478744, "lon": -21.52337786541218, "alt_km": 846.2218497394151, "timestamp": "2025-12-10T11:33:53.666019+00:00", "meta": {"OBJECT_NAME": "FENGYUN 1C DEB", "OBJECT_ID": "1999-025BJH", "EPOCH": "2025-12-05T07:01:13.321920", "MEAN_MOTION": 13.91889906, "ECCENTRICITY": 0.0215815, "INCLINATION": 99.0199, "RA_OF_ASC_NODE": 359.4166, "ARG_OF_PERICENTER": 21.1371, "MEAN_ANOMALY": 339.8541, "EPHEMERIS_TYPE": 0, "CLASSIFICATION_TYPE": "U", "NORAD_CAT_ID": 31179, "ELEMENT_SET_NO": 999, "REV_AT_EPOCH": 61837, "BSTAR": 0.0018729323, "MEAN_MOTION_DOT": 2.844e-05, "MEAN_MOTION_DDOT": 0}, "tle": {"line1": "1 31179U 99025BJH 25339.29251530  .00002844  00000+0  18729-2 0  9991", "line2": "2 31179  99.0199 359.4166 0215815  21.1371 339.8541 13.91889906618373"}}, "geometry": {"type": "Point", "coordinates": [-21.52337786541218, 70.07661229478744]}}, {"type": "Feature", "properties": {"norad_id": 31180, "name": "FENGYUN 1C DEB", "group": "fengyun-1c-debris", "lat": -11.315300469281947, "lon": 117.96727963360732, "alt_km": 904.3420190021716, "timestamp": "2025-12-10T11:33:53.666030+00:00", "meta": {"OBJECT_NAME": "FENGYUN 1C DEB", "OBJECT_ID": "1999-025BJJ", "EPOCH": "2025-12-09T14:39:25.521120", "MEAN_MOTION": 13.70338438, "ECCENTRICITY": 0.049826, "INCLINATION": 99.2178, "RA_OF_ASC_NODE": 115.2665, "ARG_OF_PERICENTER": 68.2115, "MEAN_ANOMALY": 310.6259, "EPHEMERIS_TYPE": 0, "CLASSIFICATION_TYPE": "U", "NORAD_CAT_ID": 31180, "ELEMENT_SET_NO": 999, "REV_AT_EPOCH": 64024, "BSTAR": 0.00034561, "MEAN_MOTION_DOT": 6.96e-06, "MEAN_MOTION_DDOT": 0}, "tle": {"line1": "1 31180U 99025BJJ 25343.61071205  .00000696  00000+0  34561-3 0  9999", "line2": "2 31180  99.2178 115.2665 0498260  68.2115 310.6259 13.70338438640241"}}, "geometry": {"type": "Point", "coordinates": [117.96727963360732, -11.315300469281947]}}, {"type": "Feature", "properties": {"norad_id": 31181, "name": "FENGYUN 1C DEB", "group": "fengyun-1c-debris", "lat": -79.85438418874782, "lon": 137.4118722755983, "alt_km": 894.9864170084529, "timestamp": "2025-12-10T11:33:53.666041+00:00", "meta": {"OBJECT_NAME": "FENGYUN 1C DEB", "OBJECT_ID": "1999-025BJK", "EPOCH": "2025-12-06T13:29:50.146080", "MEAN_MOTION": 14.11856129, "ECCENTRICITY": 0.00481542, "INCLINATION": 98.7747, "RA_OF_ASC_NODE": 13.2463, "ARG_OF_PERICENTER": 91.6254, "MEAN_ANOMALY": 62.7516, "EPHEMERIS_TYPE": 0, "CLASSIFICATION_TYPE": "U", "NORAD_CAT_ID": 31181, "ELEMENT_SET_NO": 999, "REV_AT_EPOCH": 95680, "BSTAR": 0.0016824405, "MEAN_MOTION_DOT": 3.063e-05, "MEAN_MOTION_DDOT": 0}, "tle": {"line1": "1 31181U 99025BJK 25340.56238595  .00003063  00000+0  16824-2 0  9990", "line2": "2 31181  98.7747  13.2463 0048154  91.6254  62.7516 14.11856129956809"}}, "geometry": {"type": "Point", "coordinates": [137.4118722755983, -79.85438418874782]}}, {"type": "Feature", "properties": {"norad_id": 31182, "name": "FENGYUN 1C DEB", "group": "fengyun-1c-debris", "lat": 34.93941766178426, "lon": -32.70801841661083, "alt_km": 846.4024599468366, "timestamp": "2025-12-10T11:33:53.666051+00:00", "meta": {"OBJECT_NAME": "FENGYUN 1C DEB", "OBJECT_ID": "1999-025BJL", "EPOCH": "2025-12-09T05:08:12.053760", "MEAN_MOTION": 14.14545929, "ECCENTRICITY": 0.0023077, "INCLINATION": 98.6814, "RA_OF_ASC_NODE": 332.187, "ARG_OF_PERICENTER": 146.444, "MEAN_ANOMALY": 276.6011, "EPHEMERIS_TYPE": 0, "CLASSIFICATION_TYPE": "U", "NORAD_CAT_ID": 31182, "ELEMENT_SET_NO": 999, "REV_AT_EPOCH": 96031, "BSTAR": 0.00059768, "MEAN_MOTION_DOT": 1.107e-05, "MEAN_MOTION_DDOT": 0}, "tle": {"line1": "1 31182U 99025BJL 25343.21402840  .00001107  00000+0  59768-3 0  9994", "line2": "2 31182  98.6814 332.1870 0023077 146.4440 276.6011 14.14545929960315"}}, "geometry": {"type": "Point", "coordinates": [-32.70801841661083, 34.93941766178426]}}]}